[
    {
        "Altitude(m)": 604969.089238037,
        "Argument of Periapsis(deg)": 0.0,
        "Eccentricity": 0.0,
        "Inclination(deg)": 60.0,
        "Latitude(deg)": -0.0927455736570481,
        "Longitude(deg)": -85.02247238198152,
        "Mean Anomaly(deg)": 0.0,
        "RAAN(deg)": 15.0,
        "Satellite Name": "Test1 66",
        "Satellite Number": 66,
        "Semi-Major Axis(m)": 6980739.136638005,
        "Time(s)": 0
    },
    {
        "Altitude(m)": 604900.028141857,
        "Argument of Periapsis(deg)": 0.00010418945913296404,
        "Eccentricity": 0.0,
        "Inclination(deg)": 60.0,
        "Latitude(deg)": 0.4476803609246994,
        "Longitude(deg)": -84.75434943214215,
        "Mean Anomaly(deg)": 0.6201061454618307,
        "RAAN(deg)": 14.999579950860259,
        "Satellite Name": "Test1 66",
        "Satellite Number": 66,
        "Semi-Major Axis(m)": 6980739.136638005,
        "Time(s)": 10
    }
]